[{"OBJECT_NAME":"SL-8 R/B","OBJECT_ID":"1991-006B","EPOCH":"2026-03-26T15:24:46.884384","MEAN_MOTION":13.77496732,"ECCENTRICITY":0.002199,"INCLINATION":82.9449,"RA_OF_ASC_NODE":157.4427,"ARG_OF_PERICENTER":351.4058,"MEAN_ANOMALY":173.4014,"EPHEMERIS_TYPE":0,"CLASSIFICATION_TYPE":"U","NORAD_CAT_ID":21088,"ELEMENT_SET_NO":999,"REV_AT_EPOCH":76640,"BSTAR":6.261e-5,"MEAN_MOTION_DOT":7.8e-7,"MEAN_MOTION_DDOT":0},{"OBJECT_NAME":"OKEAN-3","OBJECT_ID":"1991-039A","EPOCH":"2026-03-26T08:51:03.412800","MEAN_MOTION":15.04901773,"ECCENTRICITY":0.0012332,"INCLINATION":82.5165,"RA_OF_ASC_NODE":320.6838,"ARG_OF_PERICENTER":274.9268,"MEAN_ANOMALY":85.0551,"EPHEMERIS_TYPE":0,"CLASSIFICATION_TYPE":"U","NORAD_CAT_ID":21397,"ELEMENT_SET_NO":999,"REV_AT_EPOCH":86754,"BSTAR":0.00013841,"MEAN_MOTION_DOT":1.988e-5,"MEAN_MOTION_DDOT":0},{"OBJECT_NAME":"COSMOS 2151","OBJECT_ID":"1991-042A","EPOCH":"2026-03-26T21:25:12.222912","MEAN_MOTION":15.00176126,"ECCENTRICITY":0.0012649,"INCLINATION":82.4944,"RA_OF_ASC_NODE":67.0765,"ARG_OF_PERICENTER":9.7232,"MEAN_ANOMALY":350.4234,"EPHEMERIS_TYPE":0,"CLASSIFICATION_TYPE":"U","NORAD_CAT_ID":21422,"ELEMENT_SET_NO":999,"REV_AT_EPOCH":86577,"BSTAR":0.00021684,"MEAN_MOTION_DOT":2.738e-5,"MEAN_MOTION_DDOT":0},{"OBJECT_NAME":"SL-14 R/B","OBJECT_ID":"1991-042B","EPOCH":"2026-03-26T16:57:33.001344","MEAN_MOTION":14.81846195,"ECCENTRICITY":0.0017033,"INCLINATION":82.4954,"RA_OF_ASC_NODE":204.228,"ARG_OF_PERICENTER":180.3166,"MEAN_ANOMALY":179.8041,"EPHEMERIS_TYPE":0,"CLASSIFICATION_TYPE":"U","NORAD_CAT_ID":21423,"ELEMENT_SET_NO":999,"REV_AT_EPOCH":85559,"BSTAR":5.5142e-5,"MEAN_MOTION_DOT":4.6e-6,"MEAN_MOTION_DDOT":0},{"OBJECT_NAME":"ERS-1","OBJECT_ID":"1991-050A","EPOCH":"2026-03-26T12:27:15.718752","MEAN_MOTION":14.39461613,"ECCENTRICITY":0.0032573,"INCLINATION":98.7869,"RA_OF_ASC_NODE":104.1758,"ARG_OF_PERICENTER":150.696,"MEAN_ANOMALY":209.6062,"EPHEMERIS_TYPE":0,"CLASSIFICATION_TYPE":"U","NORAD_CAT_ID":21574,"ELEMENT_SET_NO":999,"REV_AT_EPOCH":81815,"BSTAR":0.00010977,"MEAN_MOTION_DOT":2.98e-6,"MEAN_MOTION_DDOT":0},{"OBJECT_NAME":"ARIANE 40 R/B","OBJECT_ID":"1991-050F","EPOCH":"2026-03-26T17:42:32.876928","MEAN_MOTION":14.42905564,"ECCENTRICITY":0.0003651,"INCLINATION":98.1977,"RA_OF_ASC_NODE":137.3317,"ARG_OF_PERICENTER":42.8634,"MEAN_ANOMALY":317.2841,"EPHEMERIS_TYPE":0,"CLASSIFICATION_TYPE":"U","NORAD_CAT_ID":21610,"ELEMENT_SET_NO":999,"REV_AT_EPOCH":82145,"BSTAR":9.6621e-5,"MEAN_MOTION_DOT":2.81e-6,"MEAN_MOTION_DDOT":0},{"OBJECT_NAME":"INTERCOSMOS 25","OBJECT_ID":"1991-086A","EPOCH":"2026-03-26T13:55:12.482976","MEAN_MOTION":12.12055207,"ECCENTRICITY":0.1486615,"INCLINATION":82.6019,"RA_OF_ASC_NODE":299.7977,"ARG_OF_PERICENTER":80.5409,"MEAN_ANOMALY":296.0044,"EPHEMERIS_TYPE":0,"CLASSIFICATION_TYPE":"U","NORAD_CAT_ID":21819,"ELEMENT_SET_NO":999,"REV_AT_EPOCH":49873,"BSTAR":0.00025958,"MEAN_MOTION_DOT":1.361e-5,"MEAN_MOTION_DDOT":0},{"OBJECT_NAME":"SL-8 R/B","OBJECT_ID":"1992-008B","EPOCH":"2026-03-26T21:25:50.863584","MEAN_MOTION":13.75969571,"ECCENTRICITY":0.0035975,"INCLINATION":82.9229,"RA_OF_ASC_NODE":254.9771,"ARG_OF_PERICENTER":86.9205,"MEAN_ANOMALY":23.3391,"EPHEMERIS_TYPE":0,"CLASSIFICATION_TYPE":"U","NORAD_CAT_ID":21876,"ELEMENT_SET_NO":999,"REV_AT_EPOCH":71178,"BSTAR":1.5606e-5,"MEAN_MOTION_DOT":3.1e-7,"MEAN_MOTION_DDOT":0},{"OBJECT_NAME":"SL-8 R/B","OBJECT_ID":"1992-020B","EPOCH":"2026-03-26T09:53:24.989856","MEAN_MOTION":13.7555046,"ECCENTRICITY":0.0027679,"INCLINATION":82.9309,"RA_OF_ASC_NODE":141.346,"ARG_OF_PERICENTER":249.878,"MEAN_ANOMALY":121.0421,"EPHEMERIS_TYPE":0,"CLASSIFICATION_TYPE":"U","NORAD_CAT_ID":21938,"ELEMENT_SET_NO":999,"REV_AT_EPOCH":70343,"BSTAR":1.3639e-5,"MEAN_MOTION_DOT":2.8e-7,"MEAN_MOTION_DDOT":0},{"OBJECT_NAME":"USA 81","OBJECT_ID":"1992-023A","EPOCH":"2026-03-26T13:32:39.122880","MEAN_MOTION":14.32373245,"ECCENTRICITY":0.0001874,"INCLINATION":85.0051,"RA_OF_ASC_NODE":121.7033,"ARG_OF_PERICENTER":68.1594,"MEAN_ANOMALY":291.9798,"EPHEMERIS_TYPE":0,"CLASSIFICATION_TYPE":"U","NORAD_CAT_ID":21949,"ELEMENT_SET_NO":999,"REV_AT_EPOCH":9720,"BSTAR":5.2994e-5,"MEAN_MOTION_DOT":1.63e-6,"MEAN_MOTION_DDOT":0},{"OBJECT_NAME":"COSMOS 2219","OBJECT_ID":"1992-076A","EPOCH":"2026-03-26T10:15:26.001792","MEAN_MOTION":14.14091646,"ECCENTRICITY":0.0018031,"INCLINATION":71.0628,"RA_OF_ASC_NODE":343.0826,"ARG_OF_PERICENTER":182.7023,"MEAN_ANOMALY":177.4005,"EPHEMERIS_TYPE":0,"CLASSIFICATION_TYPE":"U","NORAD_CAT_ID":22219,"ELEMENT_SET_NO":999,"REV_AT_EPOCH":72074,"BSTAR":-9.5603e-5,"MEAN_MOTION_DOT":-2.29e-6,"MEAN_MOTION_DDOT":0},{"OBJECT_NAME":"SL-16 R/B","OBJECT_ID":"1992-076B","EPOCH":"2026-03-26T15:50:47.825664","MEAN_MOTION":14.1686396,"ECCENTRICITY":0.0010653,"INCLINATION":71.0001,"RA_OF_ASC_NODE":152.6285,"ARG_OF_PERICENTER":64.5773,"MEAN_ANOMALY":97.43,"EPHEMERIS_TYPE":0,"CLASSIFICATION_TYPE":"U","NORAD_CAT_ID":22220,"ELEMENT_SET_NO":999,"REV_AT_EPOCH":72423,"BSTAR":2.3477e-5,"MEAN_MOTION_DOT":-1.0e-8,"MEAN_MOTION_DDOT":0},{"OBJECT_NAME":"COSMOS 2221","OBJECT_ID":"1992-080A","EPOCH":"2026-03-26T19:47:23.368128","MEAN_MOTION":14.96269147,"ECCENTRICITY":0.0015394,"INCLINATION":82.5007,"RA_OF_ASC_NODE":262.6624,"ARG_OF_PERICENTER":131.6372,"MEAN_ANOMALY":228.6171,"EPHEMERIS_TYPE":0,"CLASSIFICATION_TYPE":"U","NORAD_CAT_ID":22236,"ELEMENT_SET_NO":999,"REV_AT_EPOCH":78335,"BSTAR":0.0002154,"MEAN_MOTION_DOT":2.463e-5,"MEAN_MOTION_DDOT":0},{"OBJECT_NAME":"SL-16 R/B","OBJECT_ID":"1992-093B","EPOCH":"2026-03-26T20:12:00.185184","MEAN_MOTION":14.1545347,"ECCENTRICITY":0.0006433,"INCLINATION":71.0232,"RA_OF_ASC_NODE":328.262,"ARG_OF_PERICENTER":276.9005,"MEAN_ANOMALY":83.1386,"EPHEMERIS_TYPE":0,"CLASSIFICATION_TYPE":"U","NORAD_CAT_ID":22285,"ELEMENT_SET_NO":999,"REV_AT_EPOCH":71558,"BSTAR":0.00016243,"MEAN_MOTION_DOT":2.7e-6,"MEAN_MOTION_DDOT":0},{"OBJECT_NAME":"COSMOS 2228","OBJECT_ID":"1992-094A","EPOCH":"2026-03-26T19:54:27.946368","MEAN_MOTION":14.9727521,"ECCENTRICITY":0.0016739,"INCLINATION":82.5183,"RA_OF_ASC_NODE":220.899,"ARG_OF_PERICENTER":241.9796,"MEAN_ANOMALY":117.9734,"EPHEMERIS_TYPE":0,"CLASSIFICATION_TYPE":"U","NORAD_CAT_ID":22286,"ELEMENT_SET_NO":999,"REV_AT_EPOCH":77862,"BSTAR":0.00021848,"MEAN_MOTION_DOT":2.563e-5,"MEAN_MOTION_DDOT":0},{"OBJECT_NAME":"SL-16 R/B","OBJECT_ID":"1993-016B","EPOCH":"2026-03-26T16:07:19.549056","MEAN_MOTION":14.15305436,"ECCENTRICITY":0.0012341,"INCLINATION":71.0078,"RA_OF_ASC_NODE":179.5163,"ARG_OF_PERICENTER":292.2002,"MEAN_ANOMALY":67.7812,"EPHEMERIS_TYPE":0,"CLASSIFICATION_TYPE":"U","NORAD_CAT_ID":22566,"ELEMENT_SET_NO":999,"REV_AT_EPOCH":70457,"BSTAR":-3.7174e-5,"MEAN_MOTION_DOT":-1.2e-6,"MEAN_MOTION_DDOT":0},{"OBJECT_NAME":"COSMOS 2242","OBJECT_ID":"1993-024A","EPOCH":"2026-03-26T10:01:49.539936","MEAN_MOTION":14.96617979,"ECCENTRICITY":0.0014972,"INCLINATION":82.516,"RA_OF_ASC_NODE":250.7107,"ARG_OF_PERICENTER":247.1251,"MEAN_ANOMALY":112.8391,"EPHEMERIS_TYPE":0,"CLASSIFICATION_TYPE":"U","NORAD_CAT_ID":22626,"ELEMENT_SET_NO":999,"REV_AT_EPOCH":78289,"BSTAR":0.00017814,"MEAN_MOTION_DOT":2.059e-5,"MEAN_MOTION_DDOT":0}]
